ORBCOMM FM40            
1 33065U 08031F   25189.85339683  .00000936  00000+0  14353-3 0  9995
2 33065  48.4407 224.3009 0005587 123.9950  46.0319 14.82092727917372
VESSELSAT 1             
1 37840U 11058C   25189.73400044  .00000325  00000+0  33045-4 0  9992
2 37840  19.9633 323.5106 0013754  63.6330 296.5486 14.11356683709358
ORBCOMM FM109           
1 40086U 14040A   25190.52212832  .00000212  00000+0  82045-4 0  9996
2 40086  47.0034 270.8087 0000642  97.7379 262.3579 14.58198583584322
ORBCOMM FM107           
1 40087U 14040B   25190.48115668  .00000290  00000+0  98639-4 0  9993
2 40087  47.0051 271.9588 0001012 325.1174  34.9645 14.58272372584396
ORBCOMM FM106           
1 40088U 14040C   25190.46523323  .00000470  00000+0  11003-3 0  9992
2 40088  47.0606  92.3504 0016589 171.8296 188.2868 14.69478931586968
ORBCOMM FM111           
1 40089U 14040D   25190.53511729  .00001297  00000+0  16892-3 0  9997
2 40089  47.0024 299.1672 0031185 298.0439  61.7306 14.86386749593555
ORBCOMM FM104           
1 40090U 14040E   25190.63116268  .00000229  00000+0  88525-4 0  9996
2 40090  47.0060 305.1280 0016826 304.9012  55.0291 14.56668665583891
